[
  {
    "norad_id": 54234,
    "name": "NOAA 21 (JPSS-2)",
    "tle_line1": "1 54234U 22150A   26183.82276674  .00000058  00000+0  47932-4 0  9991",
    "tle_line2": "2 54234  98.7060 122.3492 0002467 126.4917 233.6487 14.19539315188766"
  },
  {
    "norad_id": 54743,
    "name": "METEOSAT-12 (MTG-I1)",
    "tle_line1": "1 54743U 22170C   26183.72509264  .00000004  00000+0  00000+0 0  9992",
    "tle_line2": "2 54743   0.7551  25.3200 0003602  74.6137  81.6181  1.00276285 13138"
  },
  {
    "norad_id": 55973,
    "name": "TIANMU-1 03",
    "tle_line1": "1 55973U 23039A   26183.82790185  .00016476  00000+0  31975-3 0  9997",
    "tle_line2": "2 55973  97.5236 358.4139 0003615  59.2341 300.9265 15.47731703183257"
  },
  {
    "norad_id": 55974,
    "name": "TIANMU-1 04",
    "tle_line1": "1 55974U 23039B   26183.81126578  .00016239  00000+0  30855-3 0  9999",
    "tle_line2": "2 55974  97.5174 357.5516 0004048  53.5594 306.6029 15.48345742183263"
  },
  {
    "norad_id": 55975,
    "name": "TIANMU-1 05",
    "tle_line1": "1 55975U 23039C   26183.80942707  .00015854  00000+0  30856-3 0  9992",
    "tle_line2": "2 55975  97.5220 358.0038 0003724  76.9935 283.1730 15.47656911183236"
  },
  {
    "norad_id": 55976,
    "name": "TIANMU-1 06",
    "tle_line1": "1 55976U 23039D   26183.81563465  .00016299  00000+0  31076-3 0  9993",
    "tle_line2": "2 55976  97.5226 358.6619 0003953  71.9383 288.2298 15.48245266183266"
  },
  {
    "norad_id": 56232,
    "name": "FENGYUN 3G",
    "tle_line1": "1 56232U 23055A   26183.80645860  .00022887  00000+0  36147-3 0  9990",
    "tle_line2": "2 56232  49.9922 265.5037 0007319   1.7685 358.3307 15.53321812182438"
  },
  {
    "norad_id": 57166,
    "name": "METEOR-M2 3",
    "tle_line1": "1 57166U 23091A   26183.83721928 -.00000003  00000+0  17327-4 0  9997",
    "tle_line2": "2 57166  98.6080 238.4948 0005013 117.9649 242.2037 14.24048063156747"
  },
  {
    "norad_id": 57399,
    "name": "TIANMU-1 07",
    "tle_line1": "1 57399U 23101A   26183.86307226  .00007123  00000+0  24785-3 0  9995",
    "tle_line2": "2 57399  97.2579 234.1723 0004267  89.9627 270.2103 15.29991543164044"
  },
  {
    "norad_id": 57400,
    "name": "TIANMU-1 08",
    "tle_line1": "1 57400U 23101B   26183.82967120  .00007107  00000+0  24723-3 0  9993",
    "tle_line2": "2 57400  97.2569 233.9081 0005486  77.7424 282.4431 15.29995308164035"
  },
  {
    "norad_id": 57401,
    "name": "TIANMU-1 09",
    "tle_line1": "1 57401U 23101C   26183.87814623  .00007524  00000+0  26126-3 0  9990",
    "tle_line2": "2 57401  97.2526 233.3632 0004883  92.2270 267.9530 15.30032991164047"
  },
  {
    "norad_id": 57402,
    "name": "TIANMU-1 10",
    "tle_line1": "1 57402U 23101D   26183.84607704  .00007033  00000+0  24456-3 0  9997",
    "tle_line2": "2 57402  97.2606 234.3984 0006336  86.3312 273.8653 15.30004579164036"
  },
  {
    "norad_id": 57490,
    "name": "FENGYUN 3F",
    "tle_line1": "1 57490U 23111A   26183.82889463  .00000058  00000+0  47653-4 0  9992",
    "tle_line2": "2 57490  98.6831 253.5458 0001483  82.5903 277.5441 14.19941745151087"
  },
  {
    "norad_id": 58584,
    "name": "ARKTIKA-M 2",
    "tle_line1": "1 58584U 23198A   26180.72239164  .00000148  00000+0  00000+0 0  9995",
    "tle_line2": "2 58584  63.2199 152.9641 6905877 267.3845  18.7575  2.00610643 18573"
  },
  {
    "norad_id": 58645,
    "name": "TIANMU-1 11",
    "tle_line1": "1 58645U 23205A   26183.84551156  .00006111  00000+0  23211-3 0  9995",
    "tle_line2": "2 58645  97.3438 205.1575 0007198 317.3851  42.6829 15.27156789139917"
  },
  {
    "norad_id": 58646,
    "name": "TIANMU-1 12",
    "tle_line1": "1 58646U 23205B   26183.42334862  .00006720  00000+0  25584-3 0  9994",
    "tle_line2": "2 58646  97.3426 204.4940 0005309 296.9950  63.0746 15.27051163139833"
  },
  {
    "norad_id": 58647,
    "name": "TIANMU-1 13",
    "tle_line1": "1 58647U 23205C   26183.84991390  .00006284  00000+0  23998-3 0  9998",
    "tle_line2": "2 58647  97.3454 205.1894 0004974 269.0173  91.0496 15.26977879139895"
  },
  {
    "norad_id": 58648,
    "name": "TIANMU-1 14",
    "tle_line1": "1 58648U 23205D   26183.83466216  .00006105  00000+0  23289-3 0  9997",
    "tle_line2": "2 58648  97.3391 204.3439 0005760 276.5011  83.5572 15.27022058139892"
  },
  {
    "norad_id": 58660,
    "name": "TIANMU-1 19",
    "tle_line1": "1 58660U 23208A   26183.83543037  .00008940  00000+0  29354-3 0  9999",
    "tle_line2": "2 58660  97.4523 300.2180 0003635 251.1748 108.9099 15.31812157139728"
  },
  {
    "norad_id": 58661,
    "name": "TIANMU-1 20",
    "tle_line1": "1 58661U 23208B   26183.86108209  .00009075  00000+0  28700-3 0  9995",
    "tle_line2": "2 58661  97.4465 300.8955 0005604 264.3956  95.6647 15.33001652139829"
  },
  {
    "norad_id": 58662,
    "name": "TIANMU-1 21",
    "tle_line1": "1 58662U 23208C   26183.82563353  .00010544  00000+0  30921-3 0  9998",
    "tle_line2": "2 58662  97.4525 303.6086 0005765 254.6268 105.4339 15.35356927139962"
  },
  {
    "norad_id": 58663,
    "name": "TIANMU-1 22",
    "tle_line1": "1 58663U 23208D   26183.88793304  .00008205  00000+0  27415-3 0  9991",
    "tle_line2": "2 58663  97.4519 300.1934 0002170 286.4191  73.6811 15.31278002139734"
  },
  {
    "norad_id": 58700,
    "name": "TIANMU-1 15",
    "tle_line1": "1 58700U 24004A   26182.84348373  .00008429  00000+0  32265-3 0  9992",
    "tle_line2": "2 58700  97.4664   9.0340 0005689 288.6642  71.3979 15.26798099138013"
  },
  {
    "norad_id": 58701,
    "name": "TIANMU-1 16",
    "tle_line1": "1 58701U 24004B   26183.88239591  .00006112  00000+0  23405-3 0  9992",
    "tle_line2": "2 58701  97.4613   9.2963 0004482 304.8965  55.1852 15.26908609138177"
  },
  {
    "norad_id": 58702,
    "name": "TIANMU-1 17",
    "tle_line1": "1 58702U 24004C   26183.86786291  .00006361  00000+0  24348-3 0  9998",
    "tle_line2": "2 58702  97.4641   9.7725 0004089 312.9521  47.1374 15.26906906138168"
  },
  {
    "norad_id": 58703,
    "name": "TIANMU-1 18",
    "tle_line1": "1 58703U 24004D   26183.84327377  .00006016  00000+0  23101-3 0  9996",
    "tle_line2": "2 58703  97.4658  10.0093 0003413 287.3644  72.7221 15.26825036138160"
  },
  {
    "norad_id": 58990,
    "name": "INSAT-3DS",
    "tle_line1": "1 58990U 24033A   26183.79377845 -.00000145  00000+0  00000+0 0  9992",
    "tle_line2": "2 58990   0.0723  96.7226 0001319   8.3588 183.5507  1.00273790 47226"
  },
  {
    "norad_id": 59051,
    "name": "METEOR-M2 4",
    "tle_line1": "1 59051U 24039A   26183.86969858  .00000022  00000+0  29477-4 0  9993",
    "tle_line2": "2 59051  98.7018 142.9711 0008037 119.5224 240.6756 14.22431146121497"
  },
  {
    "norad_id": 60133,
    "name": "GOES 19",
    "tle_line1": "1 60133U 24119A   26183.56768633 -.00000238  00000+0  00000+0 0  9996",
    "tle_line2": "2 60133   0.0126  77.9489 0000538  80.1000 251.7332  1.00271173  7117"
  },
  {
    "norad_id": 64723,
    "name": "MTG-S1",
    "tle_line1": "1 64723U 25143A   26183.72509264  .00000003  00000+0  00000+0 0  9993",
    "tle_line2": "2 64723   0.5916 342.2144 0002957 262.9947 296.1264  1.00272109  3574"
  },
  {
    "norad_id": 65159,
    "name": "METOP-SGA1",
    "tle_line1": "1 65159U 25172A   26183.64337602  .00000065  00000+0  51184-4 0  9997",
    "tle_line2": "2 65159  98.6636 243.0440 0007790   9.5325 350.5998 14.19817616 45989"
  },
  {
    "norad_id": 65815,
    "name": "FENGYUN 3H",
    "tle_line1": "1 65815U 25219A   26183.82547603  .00000062  00000+0  49611-4 0  9991",
    "tle_line2": "2 65815  98.6770 124.2907 0001387  65.8877 294.2444 14.19923114 39601"
  }
]